NORAD_CAT_ID,OBJECT_NAME,OBJECT_TYPE,EPOCH,MEAN_MOTION,ECCENTRICITY,INCLINATION,RA_OF_ASC_NODE,ARG_OF_PERICENTER,MEAN_ANOMALY,BSTAR,MEAN_MOTION_DOT,MEAN_MOTION_DDOT,TLE_LINE0,TLE_LINE1,TLE_LINE2,SEMIMAJOR_AXIS,PERIOD,APOGEE,PERIGEE,DECAYED
54063.0,STARLINK-5225,PAYLOAD,2024-03-24 22:49:03,15.08861489,0.0001376,53.2162,312.6388,95.9458,264.1691,0.00074186,0.00011545,0.0,0 STARLINK-5225,1 54063U 22136N   24084.95073316  .00011545  00000-0  74186-3 0  9999,2 54063  53.2162 312.6388 0001376  95.9458 264.1691 15.08861489 78944,6917.815,95.436,540.632,538.728,0.0
54063.0,STARLINK-5225,PAYLOAD,2024-03-25 08:21:20,15.08875948,0.0001416,53.2157,310.8539,77.8343,282.2808,0.00063092,9.777e-05,0.0,0 STARLINK-5225,1 54063U 22136N   24085.34815717  .00009777  00000-0  63092-3 0  9990,2 54063  53.2157 310.8539 0001416  77.8343 282.2808 15.08875948 79489,6917.771,95.435,540.615,538.656,0.0
54063.0,STARLINK-5225,PAYLOAD,2024-03-25 21:04:26,15.0883446,0.0001231,53.2142,308.4771,93.2843,266.829,-0.0003999,-6.646e-05,0.0,0 STARLINK-5225,1 54063U 22136N   24085.87808641 -.00006646  00000-0 -39990-3 0  9990,2 54063  53.2142 308.4771 0001231  93.2843 266.8290 15.08834460 79562,6917.897,95.438,540.614,538.911,0.0
54063.0,STARLINK-5225,PAYLOAD,2024-03-26 08:12:09,15.08816284,0.0001508,53.2155,306.3961,71.5689,288.5467,-0.00032548,-5.461e-05,0.0,0 STARLINK-5225,1 54063U 22136N   24086.34178037 -.00005461  00000-0 -32548-3 0  9998,2 54063  53.2155 306.3961 0001508  71.5689 288.5467 15.08816284 79637,6917.953,95.439,540.861,538.775,0.0
54063.0,STARLINK-5225,PAYLOAD,2024-03-26 20:55:15,15.08835961,0.0001478,53.2158,304.0158,89.9316,270.1846,0.00036593,5.54e-05,0.0,0 STARLINK-5225,1 54063U 22136N   24086.87170383  .00005540  00000-0  36593-3 0  9992,2 54063  53.2158 304.0158 0001478  89.9316 270.1846 15.08835961 79719,6917.893,95.438,540.78,538.735,0.0
54063.0,STARLINK-5225,PAYLOAD,2024-03-27 08:02:57,15.08848732,0.0001482,53.2159,301.9349,87.6454,272.4708,0.00071474,0.00011108,0.0,0 STARLINK-5225,1 54063U 22136N   24087.33538238  .00011108  00000-0  71474-3 0  9995,2 54063  53.2159 301.9349 0001482  87.6454 272.4708 15.08848732 79308,6917.854,95.437,540.744,538.693,0.0
54063.0,STARLINK-5225,PAYLOAD,2024-03-27 20:46:01,15.08855026,0.0001531,53.2165,299.5554,95.2542,264.8625,0.00071185,0.00011064,0.0,0 STARLINK-5225,1 54063U 22136N   24087.86530025  .00011064  00000-0  71185-3 0  9999,2 54063  53.2165 299.5554 0001531  95.2542 264.8625 15.08855026 79388,6917.834,95.437,540.759,538.64,0.0
54063.0,STARLINK-5225,PAYLOAD,2024-03-28 14:15:15,15.08857439,0.0001478,53.2166,296.283,99.8087,260.3072,9.5999e-05,1.241e-05,0.0,0 STARLINK-5225,1 54063U 22136N   24088.59393087  .00001241  00000-0  95999-4 0  9991,2 54063  53.2166 296.2830 0001478  99.8087 260.3072 15.08857439 79493,6917.827,95.436,540.715,538.67,0.0
54063.0,STARLINK-5225,PAYLOAD,2024-03-28 20:36:48,15.08843703,8.14e-05,53.2158,295.0935,36.2181,323.8866,5.8669e-05,6.46e-06,0.0,0 STARLINK-5225,1 54063U 22136N   24088.85889705  .00000646  00000-0  58669-4 0  9998,2 54063  53.2158 295.0935 0000814  36.2181 323.8866 15.08843703 80015,6917.869,95.437,540.297,539.171,0.0
54063.0,STARLINK-5225,PAYLOAD,2024-03-29 14:06:03,15.08829921,0.0001162,53.2182,291.8239,94.2532,265.8593,-0.00025422,-4.33e-05,0.0,0 STARLINK-5225,1 54063U 22136N   24089.58753930 -.00004330  00000-0 -25422-3 0  9995,2 54063  53.2182 291.8239 0001162  94.2532 265.8593 15.08829921 79649,6917.911,95.438,540.58,538.972,0.0
54063.0,STARLINK-5225,PAYLOAD,2024-03-29 20:27:35,15.08836186,0.0001492,53.2171,290.6372,89.0667,271.0496,-0.00011155,-2.063e-05,0.0,0 STARLINK-5225,1 54063U 22136N   24089.85249811 -.00002063  00000-0 -11155-3 0  9992,2 54063  53.2171 290.6372 0001492  89.0667 271.0496 15.08836186 80160,6917.892,95.438,540.789,538.725,0.0
54063.0,STARLINK-5225,PAYLOAD,2024-03-30 05:59:54,15.08837406,0.000158,53.2179,288.8525,88.938,271.1793,-6.4188e-05,-1.309e-05,0.0,0 STARLINK-5225,1 54063U 22136N   24090.24993845 -.00001309  00000-0 -64188-4 0  9997,2 54063  53.2179 288.8525 0001580  88.9380 271.1793 15.08837406 79744,6917.888,95.438,540.846,538.66,0.0
54063.0,STARLINK-5225,PAYLOAD,2024-03-30 20:18:23,15.08837905,0.0001892,53.2167,286.1752,89.2957,270.8252,0.00010376,1.364e-05,0.0,0 STARLINK-5225,1 54063U 22136N   24090.84609960  .00001364  00000-0  10376-3 0  9993,2 54063  53.2167 286.1752 0001892  89.2957 270.8252 15.08837905 79834,6917.887,95.438,541.061,538.443,0.0
54063.0,STARLINK-5225,PAYLOAD,2024-03-30 23:29:09,15.08837256,0.0001834,53.2165,285.5805,89.1999,270.9203,9.5259e-05,1.228e-05,0.0,0 STARLINK-5225,1 54063U 22136N   24090.97858042  .00001228  00000-0  95259-4 0  9997,2 54063  53.2165 285.5805 0001834  89.1999 270.9203 15.08837256 80338,6917.889,95.438,541.023,538.485,0.0
54063.0,STARLINK-5225,PAYLOAD,2024-03-31 12:12:14,15.08837757,0.0001612,53.2182,283.2033,91.663,268.4547,0.00023376,3.434e-05,0.0,0 STARLINK-5225,1 54063U 22136N   24091.50850018  .00003434  00000-0  23376-3 0  9993,2 54063  53.2182 283.2033 0001612  91.6630 268.4547 15.08837757 79932,6917.887,95.438,540.867,538.637,0.0
54063.0,STARLINK-5225,PAYLOAD,2024-03-31 20:09:09,15.08840545,0.0001471,53.217,281.7168,87.2996,272.8165,0.00017718,2.533e-05,0.0,0 STARLINK-5225,1 54063U 22136N   24091.83969714  .00002533  00000-0  17718-3 0  9995,2 54063  53.2170 281.7168 0001471  87.2996 272.8165 15.08840545 79989,6917.879,95.438,540.761,538.726,0.0
54063.0,STARLINK-5225,PAYLOAD,2024-04-01 12:03:01,15.0883648,0.0001813,53.2172,278.7424,89.0524,271.0676,4.9948e-05,5.07e-06,0.0,0 STARLINK-5225,1 54063U 22136N   24092.50210102  .00000507  00000-0  49948-4 0  9990,2 54063  53.2172 278.7424 0001813  89.0524 271.0676 15.08836480 80566,6917.891,95.438,541.01,538.502,0.0
54063.0,STARLINK-5225,PAYLOAD,2024-04-02 05:32:15,15.08845722,0.0001251,53.2155,275.4697,92.0484,268.0652,8.63e-05,1.086e-05,0.0,0 STARLINK-5225,1 54063U 22136N   24093.23073572  .00001086  00000-0  86300-4 0  9995,2 54063  53.2155 275.4697 0001251  92.0484 268.0652 15.08845722 80196,6917.863,95.437,540.593,538.862,0.0
54063.0,STARLINK-5225,PAYLOAD,2024-04-02 21:26:07,15.08843998,0.0001272,53.2157,272.4953,98.496,261.6177,7.3304e-05,8.79e-06,0.0,0 STARLINK-5225,1 54063U 22136N   24093.89313721  .00000879  00000-0  73304-4 0  9999,2 54063  53.2157 272.4953 0001272  98.4960 261.6177 15.08843998 80770,6917.868,95.437,540.613,538.853,0.0
54063.0,STARLINK-5225,PAYLOAD,2024-04-03 05:23:02,15.08846899,0.0001289,53.2158,271.0086,110.4042,249.7089,0.00013171,1.809e-05,0.0,0 STARLINK-5225,1 54063U 22136N   24094.22433533  .00001809  00000-0  13171-3 0  9990,2 54063  53.2158 271.0086 0001289 110.4042 249.7089 15.08846899 80342,6917.859,95.437,540.616,538.833,0.0
54063.0,STARLINK-5225,PAYLOAD,2024-04-03 21:16:54,15.08836559,0.0001462,53.2174,268.0334,106.2236,253.8917,0.00011436,1.532e-05,0.0,0 STARLINK-5225,1 54063U 22136N   24094.88674283  .00001532  00000-0  11436-3 0  9996,2 54063  53.2174 268.0334 0001462 106.2236 253.8917 15.08836559 80925,6917.891,95.438,540.767,538.745,0.0
54063.0,STARLINK-5225,PAYLOAD,2024-04-04 14:46:08,15.08839426,0.0001408,53.218,264.7616,111.9677,248.1465,9.9652e-05,1.298e-05,0.0,0 STARLINK-5225,1 54063U 22136N   24095.61538008  .00001298  00000-0  99652-4 0  9998,2 54063  53.2180 264.7616 0001408 111.9677 248.1465 15.08839426 80550,6917.882,95.438,540.721,538.773,0.0
54063.0,STARLINK-5225,PAYLOAD,2024-04-04 21:07:41,15.08842045,0.0001571,53.2186,263.5726,107.3441,252.7723,8.8412e-05,1.119e-05,0.0,0 STARLINK-5225,1 54063U 22136N   24095.88033895  .00001119  00000-0  88412-4 0  9995,2 54063  53.2186 263.5726 0001571 107.3441 252.7723 15.08842045 80597,6917.874,95.437,540.826,538.652,0.0
54063.0,STARLINK-5225,PAYLOAD,2024-04-05 11:26:09,15.08840051,0.0001435,53.2175,260.896,105.9252,254.1898,0.00013182,1.811e-05,0.0,0 STARLINK-5225,1 54063U 22136N   24096.47649873  .00001811  00000-0  13182-3 0  9990,2 54063  53.2175 260.8960 0001435 105.9252 254.1898 15.08840051 81166,6917.88,95.438,540.738,538.753,0.0
54063.0,STARLINK-5225,PAYLOAD,2024-04-05 14:36:55,15.08839511,0.0001434,53.2175,260.3013,104.2934,255.8218,0.00012329,1.675e-05,0.0,0 STARLINK-5225,1 54063U 22136N   24096.60897923  .00001675  00000-0  12329-3 0  9996,2 54063  53.2175 260.3013 0001434 104.2934 255.8218 15.08839511 80700,6917.882,95.438,540.739,538.755,0.0
54063.0,STARLINK-5225,PAYLOAD,2024-04-05 17:47:42,15.08838344,0.0001348,53.2164,259.7085,94.1732,265.9414,0.00012611,1.72e-05,0.0,0 STARLINK-5225,1 54063U 22136N   24096.74146076  .00001720  00000-0  12611-3 0  9992,2 54063  53.2164 259.7085 0001348  94.1732 265.9414 15.08838344 80721,6917.885,95.438,540.683,538.818,0.0
54063.0,STARLINK-5225,PAYLOAD,2024-04-06 11:16:56,15.08840557,0.0001895,53.2166,256.4383,90.0038,270.1171,4.0772e-05,3.61e-06,0.0,0 STARLINK-5225,1 54063U 22136N   24097.47010269  .00000361  00000-0  40772-4 0  9997,2 54063  53.2166 256.4383 0001895  90.0038 270.1171 15.08840557 81312,6917.879,95.438,541.055,538.433,0.0
54063.0,STARLINK-5225,PAYLOAD,2024-04-06 17:38:29,15.08837423,0.0001688,53.2166,255.2484,91.4711,268.6475,9.9223e-06,-1.3e-06,0.0,0 STARLINK-5225,1 54063U 22136N   24097.73506522 -.00000130  00000-0  99223-5 0  9999,2 54063  53.2166 255.2484 0001688  91.4711 268.6475 15.08837423 80871,6917.888,95.438,540.921,538.586,0.0
54063.0,STARLINK-5225,PAYLOAD,2024-04-07 19:04:40,15.08832845,0.0001626,53.2164,250.4919,94.6225,265.4952,3.1878e-05,2.19e-06,0.0,0 STARLINK-5225,1 54063U 22136N   24098.79491209  .00000219  00000-0  31878-4 0  9999,2 54063  53.2164 250.4919 0001626  94.6225 265.4952 15.08832845 81516,6917.902,95.438,540.892,538.642,0.0
54063.0,STARLINK-5225,PAYLOAD,2024-04-08 03:01:35,15.08837153,0.0001624,53.2177,249.0052,92.7739,267.3439,1.1737e-05,-1.01e-06,0.0,0 STARLINK-5225,1 54063U 22136N   24099.12611096 -.00000101  00000-0  11737-4 0  9998,2 54063  53.2177 249.0052 0001624  92.7739 267.3439 15.08837153 81089,6917.889,95.438,540.878,538.631,0.0
